{"type": "FeatureCollection", "features": [ {"type": "Feature", "properties": {"norad_id": 66595, "name": "STARLINK-35711", "group": "last-30-days", "lat": -29.764312835898135, "lon": -35.57320471843317, "alt_km": 446.2091862438001, "timestamp": "2025-12-27T13:34:48.005005+00:00", "meta": {"OBJECT_NAME": "STARLINK-35711", "OBJECT_ID": "2025-270H", "EPOCH": "2025-12-26T14:49:09.295680", "MEAN_MOTION": 15.40706631, "ECCENTRICITY": 2.88e-05, "INCLINATION": 42.9982, "RA_OF_ASC_NODE": 112.0335, "ARG_OF_PERICENTER": 200.2134, "MEAN_ANOMALY": 159.8711, "EPHEMERIS_TYPE": 0, "CLASSIFICATION_TYPE": "U", "NORAD_CAT_ID": 66595, "ELEMENT_SET_NO": 999, "REV_AT_EPOCH": 660, "BSTAR": 0.0014088, "MEAN_MOTION_DOT": 0.00059014, "MEAN_MOTION_DDOT": 0}, "tle": {"line1": "1 66595U 25270H   25360.61746870  .00059014  00000+0  14088-2 0  9993", "line2": "2 66595  42.9982 112.0335 0000288 200.2134 159.8711 15.40706631  6609"}}, "geometry": {"type": "Point", "coordinates": [-35.57320471843317, -29.764312835898135]}}, {"type": "Feature", "properties": {"norad_id": 66596, "name": "STARLINK-35811", "group": "last-30-days", "lat": -40.432502269035744, "lon": 41.17477338950219, "alt_km": 446.2051019621358, "timestamp": "2025-12-27T13:34:48.005017+00:00", "meta": {"OBJECT_NAME": "STARLINK-35811", "OBJECT_ID": "2025-270J", "EPOCH": "2025-12-27T07:40:06.027744", "MEAN_MOTION": 15.40747359, "ECCENTRICITY": 0.00015958, "INCLINATION": 42.9991, "RA_OF_ASC_NODE": 108.7131, "ARG_OF_PERICENTER": 248.0542, "MEAN_ANOMALY": 112.0145, "EPHEMERIS_TYPE": 0, "CLASSIFICATION_TYPE": "U", "NORAD_CAT_ID": 66596, "ELEMENT_SET_NO": 999, "REV_AT_EPOCH": 670, "BSTAR": 0.0018151127, "MEAN_MOTION_DOT": 0.00076402, "MEAN_MOTION_DDOT": 0}, "tle": {"line1": "1 66596U 25270J   25361.31951421  .00076402  00000+0  18151-2 0  9997", "line2": "2 66596  42.9991 108.7131 0001595 248.0542 112.0145 15.40747359  6706"}}, "geometry": {"type": "Point", "coordinates": [41.17477338950219, -40.432502269035744]}}, {"type": "Feature", "properties": {"norad_id": 66597, "name": "STARLINK-35820", "group": "last-30-days", "lat": -14.908858333318118, "lon": 90.57072813780678, "alt_km": 444.6660530103263, "timestamp": "2025-12-27T13:34:48.005028+00:00", "meta": {"OBJECT_NAME": "STARLINK-35820", "OBJECT_ID": "2025-270K", "EPOCH": "2025-12-26T17:27:01.514304", "MEAN_MOTION": 15.40727442, "ECCENTRICITY": 0.00015706, "INCLINATION": 43.0019, "RA_OF_ASC_NODE": 112.0061, "ARG_OF_PERICENTER": 267.3667, "MEAN_ANOMALY": 92.701, "EPHEMERIS_TYPE": 0, "CLASSIFICATION_TYPE": "U", "NORAD_CAT_ID": 66597, "ELEMENT_SET_NO": 999, "REV_AT_EPOCH": 661, "BSTAR": 0.0015888312, "MEAN_MOTION_DOT": 0.00066709, "MEAN_MOTION_DDOT": 0}, "tle": {"line1": "1 66597U 25270K   25360.72710086  .00066709  00000+0  15888-2 0  9995", "line2": "2 66597  43.0019 112.0061 0001570 267.3667  92.7010 15.40727442  6611"}}, "geometry": {"type": "Point", "coordinates": [90.57072813780678, -14.908858333318118]}}, {"type": "Feature", "properties": {"norad_id": 66598, "name": "STARLINK-35981", "group": "last-30-days", "lat": 38.47156051276711, "lon": 165.46812408853046, "alt_km": 437.7051660420602, "timestamp": "2025-12-27T13:34:48.005038+00:00", "meta": {"OBJECT_NAME": "STARLINK-35981", "OBJECT_ID": "2025-270L", "EPOCH": "2025-12-25T14:37:26.403168", "MEAN_MOTION": 15.4075353, "ECCENTRICITY": 0.0001255, "INCLINATION": 42.9985, "RA_OF_ASC_NODE": 118.2329, "ARG_OF_PERICENTER": 277.5792, "MEAN_ANOMALY": 82.4921, "EPHEMERIS_TYPE": 0, "CLASSIFICATION_TYPE": "U", "NORAD_CAT_ID": 66598, "ELEMENT_SET_NO": 999, "REV_AT_EPOCH": 618, "BSTAR": 0.0013375, "MEAN_MOTION_DOT": 0.00056078, "MEAN_MOTION_DDOT": 0}, "tle": {"line1": "1 66598U 25270L   25359.60933337  .00056078  00000+0  13375-2 0  9994", "line2": "2 66598  42.9985 118.2329 0001255 277.5792  82.4921 15.40753530  6185"}}, "geometry": {"type": "Point", "coordinates": [165.46812408853046, 38.47156051276711]}}, {"type": "Feature", "properties": {"norad_id": 66599, "name": "STARLINK-35930", "group": "last-30-days", "lat": -14.69393002556488, "lon": -57.030376263712924, "alt_km": 445.02149218809063, "timestamp": "2025-12-27T13:34:48.005048+00:00", "meta": {"OBJECT_NAME": "STARLINK-35930", "OBJECT_ID": "2025-270M", "EPOCH": "2025-12-26T14:55:36.156864", "MEAN_MOTION": 15.40718778, "ECCENTRICITY": 0.0001848, "INCLINATION": 43.0021, "RA_OF_ASC_NODE": 112.0674, "ARG_OF_PERICENTER": 277.375, "MEAN_ANOMALY": 82.6897, "EPHEMERIS_TYPE": 0, "CLASSIFICATION_TYPE": "U", "NORAD_CAT_ID": 66599, "ELEMENT_SET_NO": 999, "REV_AT_EPOCH": 649, "BSTAR": 0.0010666, "MEAN_MOTION_DOT": 0.0004454, "MEAN_MOTION_DDOT": 0}, "tle": {"line1": "1 66599U 25270M   25360.62194626  .00044540  00000+0  10666-2 0  9990", "line2": "2 66599  43.0021 112.0674 0001848 277.3750  82.6897 15.40718778  6497"}}, "geometry": {"type": "Point", "coordinates": [-57.030376263712924, -14.69393002556488]}}, {"type": "Feature", "properties": {"norad_id": 66600, "name": "STARLINK-35980", "group": "last-30-days", "lat": 38.30267038293717, "lon": -131.11565565374676, "alt_km": 437.87440475849144, "timestamp": "2025-12-27T13:34:48.005059+00:00", "meta": {"OBJECT_NAME": "STARLINK-35980", "OBJECT_ID": "2025-270N", "EPOCH": "2025-12-27T06:51:43.259040", "MEAN_MOTION": 15.40752668, "ECCENTRICITY": 7.907e-05, "INCLINATION": 42.9975, "RA_OF_ASC_NODE": 108.4563, "ARG_OF_PERICENTER": 1.7739, "MEAN_ANOMALY": 358.312, "EPHEMERIS_TYPE": 0, "CLASSIFICATION_TYPE": "U", "NORAD_CAT_ID": 66600, "ELEMENT_SET_NO": 999, "REV_AT_EPOCH": 649, "BSTAR": 0.0014940178, "MEAN_MOTION_DOT": 0.00062729, "MEAN_MOTION_DDOT": 0}, "tle": {"line1": "1 66600U 25270N   25361.28591735  .00062729  00000+0  14940-2 0  9996", "line2": "2 66600  42.9975 108.4563 0000790   1.7739 358.3120 15.40752668  6491"}}, "geometry": {"type": "Point", "coordinates": [-131.11565565374676, 38.30267038293717]}}, {"type": "Feature", "properties": {"norad_id": 66601, "name": "STARLINK-35978", "group": "last-30-days", "lat": 10.342097542194853, "lon": 118.37264882257722, "alt_km": 441.9648709203675, "timestamp": "2025-12-27T13:34:48.005069+00:00", "meta": {"OBJECT_NAME": "STARLINK-35978", "OBJECT_ID": "2025-270P", "EPOCH": "2025-12-26T14:10:38.424864", "MEAN_MOTION": 15.40750428, "ECCENTRICITY": 4.83e-05, "INCLINATION": 43.0003, "RA_OF_ASC_NODE": 112.7006, "ARG_OF_PERICENTER": 109.4058, "MEAN_ANOMALY": 250.6851, "EPHEMERIS_TYPE": 0, "CLASSIFICATION_TYPE": "U", "NORAD_CAT_ID": 66601, "ELEMENT_SET_NO": 999, "REV_AT_EPOCH": 632, "BSTAR": 0.0012989, "MEAN_MOTION_DOT": 0.00054433, "MEAN_MOTION_DDOT": 0}, "tle": {"line1": "1 66601U 25270P   25360.59072251  .00054433  00000+0  12989-2 0  9991", "line2": "2 66601  43.0003 112.7006 0000483 109.4058 250.6851 15.40750428  6324"}}, "geometry": {"type": "Point", "coordinates": [118.37264882257722, 10.342097542194853]}}, {"type": "Feature", "properties": {"norad_id": 66602, "name": "STARLINK-36050", "group": "last-30-days", "lat": -35.92258943172514, "lon": 56.22941581701381, "alt_km": 446.4043724502508, "timestamp": "2025-12-27T13:34:48.005092+00:00", "meta": {"OBJECT_NAME": "STARLINK-36050", "OBJECT_ID": "2025-270Q", "EPOCH": "2025-12-26T16:03:21.386592", "MEAN_MOTION": 15.40750684, "ECCENTRICITY": 4.193e-05, "INCLINATION": 42.9995, "RA_OF_ASC_NODE": 112.4296, "ARG_OF_PERICENTER": 251.3253, "MEAN_ANOMALY": 108.7558, "EPHEMERIS_TYPE": 0, "CLASSIFICATION_TYPE": "U", "NORAD_CAT_ID": 66602, "ELEMENT_SET_NO": 999, "REV_AT_EPOCH": 639, "BSTAR": 0.0015286524, "MEAN_MOTION_DOT": 0.00064199, "MEAN_MOTION_DDOT": 0}, "tle": {"line1": "1 66602U 25270Q   25360.66899753  .00064199  00000+0  15287-2 0  9998", "line2": "2 66602  42.9995 112.4296 0000419 251.3253 108.7558 15.40750684  6392"}}, "geometry": {"type": "Point", "coordinates": [56.22941581701381, -35.92258943172514]}}, {"type": "Feature", "properties": {"norad_id": 66603, "name": "STARLINK-36048", "group": "last-30-days", "lat": 32.77306397979863, "lon": 150.68884022325173, "alt_km": 441.4033032315883, "timestamp": "2025-12-27T13:34:48.005105+00:00", "meta": {"OBJECT_NAME": "STARLINK-36048", "OBJECT_ID": "2025-270R", "EPOCH": "2025-12-26T17:07:39.283104", "MEAN_MOTION": 15.40743551, "ECCENTRICITY": 0.00047753, "INCLINATION": 42.9999, "RA_OF_ASC_NODE": 111.9022, "ARG_OF_PERICENTER": 249.7133, "MEAN_ANOMALY": 110.3211, "EPHEMERIS_TYPE": 0, "CLASSIFICATION_TYPE": "U", "NORAD_CAT_ID": 66603, "ELEMENT_SET_NO": 999, "REV_AT_EPOCH": 640, "BSTAR": 0.0013488776, "MEAN_MOTION_DOT": 0.0005656, "MEAN_MOTION_DDOT": 0}, "tle": {"line1": "1 66603U 25270R   25360.71364911  .00056560  00000+0  13489-2 0  9993", "line2": "2 66603  42.9999 111.9022 0004775 249.7133 110.3211 15.40743551  6407"}}, "geometry": {"type": "Point", "coordinates": [150.68884022325173, 32.77306397979863]}}, {"type": "Feature", "properties": {"norad_id": 66604, "name": "STARLINK-35977", "group": "last-30-days", "lat": 41.671402926647765, "lon": 179.7042007463244, "alt_km": 437.28201388103207, "timestamp": "2025-12-27T13:34:48.005115+00:00", "meta": {"OBJECT_NAME": "STARLINK-35977", "OBJECT_ID": "2025-270S", "EPOCH": "2025-12-27T00:47:59.630784", "MEAN_MOTION": 15.40712146, "ECCENTRICITY": 3.877e-05, "INCLINATION": 43.0006, "RA_OF_ASC_NODE": 109.9999, "ARG_OF_PERICENTER": 315.8533, "MEAN_ANOMALY": 44.2292, "EPHEMERIS_TYPE": 0, "CLASSIFICATION_TYPE": "U", "NORAD_CAT_ID": 66604, "ELEMENT_SET_NO": 999, "REV_AT_EPOCH": 655, "BSTAR": 0.0016846029, "MEAN_MOTION_DOT": 0.0007075, "MEAN_MOTION_DDOT": 0}, "tle": {"line1": "1 66604U 25270S   25361.03332906  .00070750  00000+0  16846-2 0  9996", "line2": "2 66604  43.0006 109.9999 0000387 315.8533  44.2292 15.40712146  6559"}}, "geometry": {"type": "Point", "coordinates": [179.7042007463244, 41.671402926647765]}}]}